{
    "links": {
        "self": "http://www.neowsapp.com/rest/v1/neo/3888747?api_key=iIulBulltgU6a56xZRHN4H3l9WmuAYTsLGpBGhQ2"
    },
    "id": "3888747",
    "neo_reference_id": "3888747",
    "name": "(2019 UF12)",
    "designation": "2019 UF12",
    "nasa_jpl_url": "http://ssd.jpl.nasa.gov/sbdb.cgi?sstr=3888747",
    "absolute_magnitude_h": 24.6,
    "estimated_diameter": {
        "kilometers": {
            "estimated_diameter_min": 0.0319561887,
            "estimated_diameter_max": 0.0714562102
        },
        "meters": {
            "estimated_diameter_min": 31.9561886721,
            "estimated_diameter_max": 71.4562101727
        },
        "miles": {
            "estimated_diameter_min": 0.0198566489,
            "estimated_diameter_max": 0.0444008168
        },
        "feet": {
            "estimated_diameter_min": 104.8431420431,
            "estimated_diameter_max": 234.436392583
        }
    },
    "is_potentially_hazardous_asteroid": false,
    "close_approach_data": [
        {
            "close_approach_date": "2015-12-21",
            "close_approach_date_full": "2015-Dec-21 09:24",
            "epoch_date_close_approach": 1450689840000,
            "relative_velocity": {
                "kilometers_per_second": "13.3205851805",
                "kilometers_per_hour": "47954.1066499616",
                "miles_per_hour": "29796.8169903609"
            },
            "miss_distance": {
                "astronomical": "0.3196418013",
                "lunar": "124.3406607057",
                "kilometers": "47817732.637443231",
                "miles": "29712561.2711333478"
            },
            "orbiting_body": "Earth"
        },
        {
            "close_approach_date": "2019-11-24",
            "close_approach_date_full": "2019-Nov-24 16:28",
            "epoch_date_close_approach": 1574612880000,
            "relative_velocity": {
                "kilometers_per_second": "6.5840004913",
                "kilometers_per_hour": "23702.4017688058",
                "miles_per_hour": "14727.7506990671"
            },
            "miss_distance": {
                "astronomical": "0.094455977",
                "lunar": "36.743375053",
                "kilometers": "14130412.96796899",
                "miles": "8780231.473552462"
            },
            "orbiting_body": "Earth"
        },
        {
            "close_approach_date": "2023-10-15",
            "close_approach_date_full": "2023-Oct-15 17:17",
            "epoch_date_close_approach": 1697390220000,
            "relative_velocity": {
                "kilometers_per_second": "16.3233682306",
                "kilometers_per_hour": "58764.1256303368",
                "miles_per_hour": "36513.742395139"
            },
            "miss_distance": {
                "astronomical": "0.4019227952",
                "lunar": "156.3479673328",
                "kilometers": "60126794.066366224",
                "miles": "37361057.3775889312"
            },
            "orbiting_body": "Earth"
        }
    ],
    "orbital_data": {
        "orbit_id": "6",
        "orbit_determination_date": "2020-01-28 17:04:24",
        "first_observation_date": "2019-10-25",
        "last_observation_date": "2019-12-25",
        "data_arc_in_days": 61,
        "observations_used": 38,
        "orbit_uncertainty": "6",
        "minimum_orbit_intersection": ".0946574",
        "jupiter_tisserand_invariant": "3.220",
        "epoch_osculation": "2459000.5",
        "eccentricity": ".5674164533261905",
        "semi_major_axis": "2.495330337007816",
        "inclination": "5.77011544791247",
        "ascending_node_longitude": "72.87244995271355",
        "orbital_period": "1439.761303113427",
        "perihelion_distance": "1.079438847305594",
        "perihelion_argument": "348.4828394477066",
        "aphelion_distance": "3.911221826710039",
        "perihelion_time": "2458811.454903066562",
        "mean_anomaly": "47.26910964259744",
        "mean_motion": ".2500414473020731",
        "equinox": "J2000",
        "orbit_class": {
            "orbit_class_type": "AMO",
            "orbit_class_description": "Near-Earth asteroid orbits similar to that of 1221 Amor",
            "orbit_class_range": "1.017 AU < q (perihelion) < 1.3 AU"
        }
    },
    "is_sentry_object": false
}